     2.100          NAVIGATION                              RINEX VERSION / TYPE
fic2rin                                 10/01/2014 00:54:07 PGM / RUN BY / DATE
                                                            END OF HEADER
16 14  9 30 14  0  0.0 -.191371887922D-03  .261479726760D-11  .000000000000D+00
     .860000000000D+02 -.758125000000D+02  .400873840862D-08 -.284862196424D+01
    -.388547778130D-05  .765459623653D-02  .631064176559D-05  .515367009926D+04
     .223200000000D+06 -.109896063805D-06  .293305106569D+00 -.409781932831D-07
     .989250387872D+00  .275562500000D+03  .237742366101D+00 -.785639867911D-08
    -.750031241812D-10  .100000000000D+01  .181200000000D+04  .000000000000D+00
     .240000000000D+01  .000000000000D+00 -.102445483208D-07  .860000000000D+02
     .216006000000D+06  .400000000000D+01
17 14  9 30 14  0  0.0 -.127529259771D-03 -.261479726760D-11  .000000000000D+00
     .157000000000D+03 -.375625000000D+02  .422303304913D-08  .253408714265D+01
    -.202655792236D-05  .951858377084D-02  .923871994019D-05  .515365698433D+04
     .223200000000D+06  .409781932831D-07  .132325426162D+01 -.163912773132D-06
     .969641625580D+00  .204687500000D+03 -.209560779516D+01 -.771317842770D-08
     .216794744657D-09  .100000000000D+01  .181200000000D+04  .000000000000D+00
     .240000000000D+01  .000000000000D+00 -.102445483208D-07  .157000000000D+03
     .216006000000D+06  .400000000000D+01
18 14  9 30 14  0  0.0  .348254106939D-03  .250111042988D-11  .000000000000D+00
     .540000000000D+02 -.275000000000D+01  .527379110314D-08 -.225139677656D+01
    -.160187482834D-06  .154799480224D-01  .822171568871D-05  .515372915077D+04
     .223200000000D+06  .195577740669D-06 -.292186886661D+01 -.726431608200D-07
     .925907154172D+00  .201562500000D+03 -.200871474029D+01 -.810176604250D-08
    -.261796619166D-09  .100000000000D+01  .181200000000D+04  .000000000000D+00
     .240000000000D+01  .000000000000D+00 -.107102096081D-07  .540000000000D+02
     .216006000000D+06  .400000000000D+01
19 14  9 30 14  0  0.0 -.481239520013D-03 -.181898940355D-11  .000000000000D+00
     .620000000000D+02 -.500625000000D+02  .444089926699D-08  .167164515494D+01
    -.238418579102D-05  .106086035958D-01  .100545585155D-04  .515366021729D+04
     .223200000000D+06 -.169500708580D-06  .137367802835D+01  .223517417908D-06
     .966723168380D+00  .191062500000D+03  .504950441944D+00 -.801819113270D-08
     .216080429189D-09  .100000000000D+01  .181200000000D+04  .000000000000D+00
     .240000000000D+01  .000000000000D+00 -.149011611938D-07  .620000000000D+02
     .216006000000D+06  .400000000000D+01
20 14  9 30 14  0  0.0  .239852815866D-03  .432009983342D-11  .000000000000D+00
     .400000000000D+02 -.796875000000D+01  .544308386915D-08 -.174054104635D+01
    -.452622771263D-06  .602991040796D-02  .770948827267D-05  .515371735382D+04
     .223200000000D+06  .156462192535D-06 -.297477371021D+01  .745058059692D-07
     .926997475794D+00  .213375000000D+03  .132780825538D+01 -.840356432790D-08
    -.375729936374D-09  .100000000000D+01  .181200000000D+04  .000000000000D+00
     .240000000000D+01  .000000000000D+00 -.791624188423D-08  .400000000000D+02
     .216006000000D+06  .400000000000D+01
21 14  9 30 14  0  0.0 -.386840198189D-03 -.204636307899D-11  .000000000000D+00
     .930000000000D+02  .281250000000D+01  .544308386915D-08 -.130337499407D+01
     .391155481339D-06  .216595372185D-01  .670179724693D-05  .515368229485D+04
     .223200000000D+06  .359490513802D-06  .231713569807D+01  .489875674248D-06
     .932831016705D+00  .232187500000D+03 -.199112997490D+01 -.847856745208D-08
     .803604901941D-10  .100000000000D+01  .181200000000D+04  .000000000000D+00
     .240000000000D+01  .000000000000D+00 -.111758708954D-07  .930000000000D+02
     .216006000000D+06  .400000000000D+01
22 14  9 30 14  0  0.0  .272601842880D-03  .329691829393D-11  .000000000000D+00
     .430000000000D+02 -.309375000000D+01  .537486674192D-08 -.279713139669D+01
    -.180676579475D-06  .733552663587D-02  .828318297863D-05  .515371989822D+04
     .223200000000D+06  .726431608200D-07 -.292022796699D+01 -.409781932831D-07
     .923696355798D+00  .198750000000D+03 -.205140599896D+01 -.827248743945D-08
    -.330013746397D-09  .100000000000D+01  .181200000000D+04  .000000000000D+00
     .240000000000D+01  .000000000000D+00 -.172294676304D-07  .430000000000D+02
     .216006000000D+06  .400000000000D+01
23 14  9 30 14  0  0.0 -.562672503293D-04 -.284217094304D-11  .000000000000D+00
     .370000000000D+02  .661562500000D+02  .452554565000D-08  .124484893894D+01
     .364519655704D-05  .969960796647D-02  .998005270958D-05  .515373402977D+04
     .223200000000D+06 -.178813934326D-06 -.185381878407D+01  .949949026108D-07
     .950393269249D+00  .182125000000D+03 -.272474108552D+01 -.809533720329D-08
    -.222152110670D-09  .100000000000D+01  .181200000000D+04  .000000000000D+00
     .240000000000D+01  .000000000000D+00 -.200234353542D-07  .370000000000D+02
     .216006000000D+06  .400000000000D+01
24 14  9 30 14  0  0.0 -.360268168151D-04 -.568434188608D-12  .000000000000D+00
     .660000000000D+02  .407500000000D+02  .477877048354D-08  .613924087420D+00
     .211223959923D-05  .227513664868D-02  .389665365219D-05  .515370848656D+04
     .223200000000D+06  .912696123123D-07 -.826448108447D+00  .633299350739D-07
     .955680502420D+00  .303593750000D+03  .231875641820D+00 -.841249327125D-08
     .960754304987D-10  .100000000000D+01  .181200000000D+04  .000000000000D+00
     .240000000000D+01  .000000000000D+00  .279396772385D-08  .660000000000D+02
     .216006000000D+06  .400000000000D+01
25 14  9 30 14  0  0.0  .199424102902D-04 -.113686837722D-11  .000000000000D+00
     .250000000000D+02 -.673750000000D+02  .429267880730D-08 -.143465860692D+01
    -.349432229996D-05  .366241158918D-02  .615790486336D-05  .515354796791D+04
     .223200000000D+06  .186264514923D-07  .230862655899D+00  .745058059692D-08
     .977328692474D+00  .269312500000D+03  .716794222156D+00 -.807462205471D-08
    -.357157734196D-10  .100000000000D+01  .181200000000D+04  .000000000000D+00
     .240000000000D+01  .000000000000D+00  .558793544769D-08  .250000000000D+02
     .216006000000D+06  .400000000000D+01
26 14  9 30 14  0  0.0 -.726412981749D-04 -.128466126625D-10  .000000000000D+00
     .700000000000D+01  .632187500000D+02  .412945772278D-08  .123193453367D+01
     .313483178616D-05  .212310148636D-01  .902637839317D-05  .515369243813D+04
     .223200000000D+06 -.376254320145D-06 -.176261991656D+01 -.188127160072D-06
     .973483747311D+00  .217281250000D+03  .129408529603D+01 -.816212569958D-08
    -.692886004340D-10  .100000000000D+01  .181200000000D+04  .000000000000D+00
     .240000000000D+01  .000000000000D+00 -.605359673500D-08  .700000000000D+01
     .216006000000D+06  .400000000000D+01
28 14  9 30 14  0  0.0  .387985724956D-03  .261479726760D-11  .000000000000D+00
     .210000000000D+02 -.736250000000D+02  .389266214500D-08 -.296856155733D+01
    -.391155481339D-05  .193506599171D-01  .606849789619D-05  .515368408203D+04
     .223200000000D+06  .350177288055D-06  .298938945996D+00 -.447034835815D-07
     .987806258050D+00  .272593750000D+03 -.170829451952D+01 -.759888795276D-08
     .678599694973D-11  .100000000000D+01  .181200000000D+04  .000000000000D+00
     .240000000000D+01  .000000000000D+00 -.107102096081D-07  .210000000000D+02
     .216006000000D+06  .400000000000D+01
29 14  9 30 14  0  0.0  .563706737012D-03  .238742359215D-11  .000000000000D+00
     .400000000000D+02 -.347500000000D+02  .430089343519D-08 -.109349790094D+01
    -.176951289177D-05  .114130065776D-02  .101160258055D-04  .515363546371D+04
     .223200000000D+06 -.745058059692D-08  .133242438073D+01 -.633299350739D-07
     .970411168766D+00  .186937500000D+03 -.811693633109D+00 -.795997442203D-08
     .271797035723D-09  .100000000000D+01  .181200000000D+04  .000000000000D+00
     .240000000000D+01  .000000000000D+00 -.977888703346D-08  .400000000000D+02
     .216006000000D+06  .400000000000D+01
30 14  9 30 14  0  0.0 -.677332282066D-04 -.397903932026D-11  .000000000000D+00
     .290000000000D+02  .395000000000D+02  .465626538071D-08 -.438370800429D+00
     .208243727684D-05  .103565771133D-02  .400282442570D-05  .515365607643D+04
     .223200000000D+06 -.558793544769D-08 -.736962170255D+00  .186264514923D-07
     .958067626311D+00  .297875000000D+03 -.313703096488D+01 -.835749098019D-08
     .130362572982D-09  .100000000000D+01  .181200000000D+04  .000000000000D+00
     .240000000000D+01  .000000000000D+00  .325962901115D-08  .290000000000D+02
     .216006000000D+06  .400000000000D+01
31 14  9 30 14  0  0.0  .331119634211D-03 -.454747350886D-12  .000000000000D+00
     .930000000000D+02  .491562500000D+02  .431375111362D-08 -.316201357387D+00
     .241771340370D-05  .807678676210D-02  .421330332756D-05  .515363479233D+04
     .223200000000D+06  .558793544769D-08 -.782960641979D+00 -.199303030968D-06
     .977323333805D+00  .303062500000D+03 -.630521807353D+00 -.830677458193D-08
     .162506769059D-09  .100000000000D+01  .181200000000D+04  .000000000000D+00
     .240000000000D+01  .000000000000D+00 -.130385160446D-07  .930000000000D+02
     .216006000000D+06  .400000000000D+01
32 14  9 30 14  0  0.0 -.328364782035D-03  .875388650456D-11  .000000000000D+00
     .440000000000D+02 -.281250000000D+01  .505021036153D-08  .208693291039D+00
    -.284984707832D-06  .114306251053D-01  .828690826893D-05  .515363927650D+04
     .223200000000D+06  .184401869774D-06 -.282506620508D+01 -.465661287308D-07
     .947798892291D+00  .211968750000D+03 -.762598509060D-01 -.838820654533D-08
    -.384301721995D-09  .100000000000D+01  .181200000000D+04  .000000000000D+00
     .240000000000D+01  .000000000000D+00 -.325962901115D-08  .440000000000D+02
     .216006000000D+06  .400000000000D+01
